#aV2006  4  8  0  0   .00000000      96 DD+AD WGS84 FIT  NGA
## 1369 518400.00000000   900.00000000 53833  .0000000000000
+   29     1  2  3  4  5  6  7  8  9 10 11 13 14 15 16 17 18
+         19 20 21 22 23 24 25 26 27 28 29 30  0  0  0  0  0
+          0  0  0  0  0  0  0  0  0  0  0  0  0  0  0  0  0
+          0  0  0  0  0  0  0  0  0  0  0  0  0  0  0  0  0
+          0  0  0  0  0  0  0  0  0  0  0  0  0  0  0  0  0
++         0  0  0  0  0  0  0  0  0  0  0  0  0  0  0  0  0
++         0  0  0  0  0  0  0  0  0  0  0  0  0  0  0  0  0
++         0  0  0  0  0  0  0  0  0  0  0  0  0  0  0  0  0
++         0  0  0  0  0  0  0  0  0  0  0  0  0  0  0  0  0
++         0  0  0  0  0  0  0  0  0  0  0  0  0  0  0  0  0
%c cc cc ccc ccc cccc cccc cccc cccc ccccc ccccc ccccc ccccc
%c cc cc ccc ccc cccc cccc cccc cccc ccccc ccccc ccccc ccccc
%f  0.0000000  0.000000000  0.00000000000  0.000000000000000
%f  0.0000000  0.000000000  0.00000000000  0.000000000000000
%i    0    0    0    0      0      0      0      0         0
%i    0    0    0    0      0      0      0      0         0
/*      NGA, ST. LOUIS,MO.                                  
/*   EPHEMERIS COMPUTED FROM  3 DAYS OF DATA                
/* CCCCCCCCCCCCCCCCCCCCCCCCCCCCCCCCCCCCCCCCCCCCCCCCCCCCCCCCC
/* CCCCCCCCCCCCCCCCCCCCCCCCCCCCCCCCCCCCCCCCCCCCCCCCCCCCCCCCC
*  2006  4  8 11 45   .00000000                                                 
P  1  15611.715952  14775.177592  15826.218110     45.909898                    
V  1 -19372.439242  -3620.884133  22732.124261       .021211                    
P  2 -12824.253296 -22226.963028  -7497.347777    -10.273203                    
V  2   -198.803499  -9529.078239  29470.719536       .021108                    
P  3  20624.079171  11834.173072 -12300.873205     88.588282                    
V  3 -15576.308735   1025.107275 -25161.747682       .032436                    
P  4  -5778.571321 -25589.479891   2613.045506    199.366617                    
V  4   4281.284340   2259.583013  31512.421492       .102431                    
P  5 -20179.245598   8649.959210  14633.066940   -198.649720                    
V  5   9419.416752 -16784.028683  22778.112727       .684982                    
P  6 -20091.322902   7868.287306 -15342.886728    458.620060                    
V  6 -19099.031129  -6062.070117  21549.111294       .243138                    
P  7  -1287.506782  15576.062202 -21157.842060    525.524509                    
V  7 -27419.569479  -4025.083998  -1416.085460       .046493                    
P  8   1337.443845 -23878.076489 -11251.819956    -62.007079                    
V  8   6084.745283  13043.183335 -27693.331504      -.010753                    
P  9 -16457.660116  -4427.137400  19906.121072     15.218934                    
V  9  -8075.015779 -25168.934126 -11671.643993       .015325                    
P 10 -11891.241180  -9172.436676 -22010.129417     81.447247                    
V 10  19020.734393 -20094.098914  -1604.105993       .006448                    
P 11  17990.418078   1423.623978  19482.616708    319.102226                    
V 11   9656.469420  23215.257823 -10328.501217       .026211                    
P 13  18378.652179  -7483.175183 -17702.421309     53.081712                    
V 13  21393.540984   6299.670188  19696.232990       .027005                    
P 14    428.639261  15016.993224  21974.234058    -16.349120                    
V 14 -27033.318299  -5871.570306   4509.491475       .006960                    
P 15  -2472.686400  23774.573004 -11314.851493    593.271465                    
V 15  -6020.290233 -13223.592865 -27248.258252       .061372                    
P 16   6434.576156  14686.086296 -21070.791525     35.599109                    
V 16 -18819.749315  19335.286198   7794.275080       .021589                    
P 17   1143.034234 -15267.098481  21693.185896     79.796861                    
V 17  26996.113612   5631.820343   2450.448808       .047211                    
P 18 -18062.702059  19228.556161    974.091005   -229.793508                    
V 18  -3037.024057  -1410.152126 -31866.434773      -.018729                    
P 19  25635.142140   7029.057947    160.662648    -16.042718                    
V 19   -691.026486   2774.037790 -31680.808663       .014325                    
P 20  20851.222652  -8966.676582  13675.385829    -29.027523                    
V 20  -9933.437465  14637.031153  24611.264678       .006930                    
P 21  -8320.503692  17730.165748 -17649.693859     19.815272                    
V 21  -8269.033301 -21319.801028 -17988.372300       .029167                    
P 22  -8448.749724  21538.513346  13195.233242     83.524605                    
V 22 -13353.655006   9998.043927 -25163.501145       .037953                    
P 23  25441.511965   -183.764541  -7987.186860    144.648052                    
V 23   9274.689110   4301.588067  29630.806938      -.011231                    
P 24   4627.476056 -21844.919933  14422.094882     99.123187                    
V 24   6788.118231  16834.204556  23956.124983       .029487                    
P 25  10079.970322  24497.920278    501.333975      6.315694                    
V 25  -2983.509300   1100.763751  31657.048237       .091978                    
P 26 -25013.945663  -9001.668812  -4384.321651    -80.915575                    
V 26   5151.863036   -111.737367 -31369.816804      -.103670                    
P 27   6699.330606 -17619.276114 -17971.883295     43.400938                    
V 27  10595.442965  21831.036548 -17227.684602       .015836                    
P 28  10682.907142 -21935.547214  10339.394935     29.898823                    
V 28  10757.568024  -7507.114662 -28141.042965      -.007231                    
P 29 -23589.399453  -9869.456294  -7446.296296    580.675680                    
V 29   9833.699707    273.128858 -30265.811469       .087002                    
P 30 -19577.352211  16841.105219   5666.093220    113.736521                    
V 30   2321.950821  -7967.680414  30343.825722       .554342                    
EOF
